{"type": "FeatureCollection", "features": [ {"type": "Feature", "properties": {"norad_id": 44622, "name": "GAOFEN-10R", "group": "resource", "lat": 26.93533035840044, "lon": -71.90743748271032, "alt_km": 614.3051944884382, "timestamp": "2025-12-10T16:57:11.292435+00:00", "meta": {"OBJECT_NAME": "GAOFEN-10R", "OBJECT_ID": "2019-066A", "EPOCH": "2025-12-10T11:58:19.954848", "MEAN_MOTION": 14.82779979, "ECCENTRICITY": 0.000798, "INCLINATION": 98.0276, "RA_OF_ASC_NODE": 291.9963, "ARG_OF_PERICENTER": 48.2282, "MEAN_ANOMALY": 311.9611, "EPHEMERIS_TYPE": 0, "CLASSIFICATION_TYPE": "U", "NORAD_CAT_ID": 44622, "ELEMENT_SET_NO": 999, "REV_AT_EPOCH": 33441, "BSTAR": 0.00033745, "MEAN_MOTION_DOT": 2.675e-05, "MEAN_MOTION_DDOT": 0}, "tle": {"line1": "1 44622U 19066A   25344.49884207  .00002675  00000+0  33745-3 0  9994", "line2": "2 44622  98.0276 291.9963 0007980  48.2282 311.9611 14.82779979334411"}}, "geometry": {"type": "Point", "coordinates": [-71.90743748271032, 26.93533035840044]}}, {"type": "Feature", "properties": {"norad_id": 44804, "name": "CARTOSAT-3", "group": "resource", "lat": -73.94255679561321, "lon": 71.3887687631791, "alt_km": 524.5918814097186, "timestamp": "2025-12-10T16:57:11.292447+00:00", "meta": {"OBJECT_NAME": "CARTOSAT-3", "OBJECT_ID": "2019-081A", "EPOCH": "2025-12-10T12:32:41.037216", "MEAN_MOTION": 15.19340059, "ECCENTRICITY": 0.0013965, "INCLINATION": 97.458, "RA_OF_ASC_NODE": 44.1346, "ARG_OF_PERICENTER": 93.6903, "MEAN_ANOMALY": 266.5929, "EPHEMERIS_TYPE": 0, "CLASSIFICATION_TYPE": "U", "NORAD_CAT_ID": 44804, "ELEMENT_SET_NO": 999, "REV_AT_EPOCH": 33482, "BSTAR": 0.00031446, "MEAN_MOTION_DOT": 6.594e-05, "MEAN_MOTION_DDOT": 0}, "tle": {"line1": "1 44804U 19081A   25344.52269719  .00006594  00000+0  31446-3 0  9992", "line2": "2 44804  97.4580  44.1346 0013965  93.6903 266.5929 15.19340059334827"}}, "geometry": {"type": "Point", "coordinates": [71.3887687631791, -73.94255679561321]}}, {"type": "Feature", "properties": {"norad_id": 44819, "name": "GAOFEN-12 01", "group": "resource", "lat": -49.43654663739936, "lon": 0.27082375476389114, "alt_km": 633.7632690913542, "timestamp": "2025-12-10T16:57:11.292457+00:00", "meta": {"OBJECT_NAME": "GAOFEN-12 01", "OBJECT_ID": "2019-082A", "EPOCH": "2025-12-10T12:18:47.463840", "MEAN_MOTION": 14.80653316, "ECCENTRICITY": 0.0001214, "INCLINATION": 97.8127, "RA_OF_ASC_NODE": 350.8525, "ARG_OF_PERICENTER": 248.519, "MEAN_ANOMALY": 111.5893, "EPHEMERIS_TYPE": 0, "CLASSIFICATION_TYPE": "U", "NORAD_CAT_ID": 44819, "ELEMENT_SET_NO": 999, "REV_AT_EPOCH": 32617, "BSTAR": 0.00011606, "MEAN_MOTION_DOT": 8.41e-06, "MEAN_MOTION_DDOT": 0}, "tle": {"line1": "1 44819U 19082A   25344.51304935  .00000841  00000+0  11606-3 0  9993", "line2": "2 44819  97.8127 350.8525 0001214 248.5190 111.5893 14.80653316326171"}}, "geometry": {"type": "Point", "coordinates": [0.27082375476389114, -49.43654663739936]}}, {"type": "Feature", "properties": {"norad_id": 44873, "name": "CSG-1", "group": "resource", "lat": 49.19714066802337, "lon": 156.8276727485469, "alt_km": 617.238242268997, "timestamp": "2025-12-10T16:57:11.292467+00:00", "meta": {"OBJECT_NAME": "CSG-1", "OBJECT_ID": "2019-092A", "EPOCH": "2025-12-10T11:52:06.082176", "MEAN_MOTION": 14.82159472, "ECCENTRICITY": 0.0001447, "INCLINATION": 97.881, "RA_OF_ASC_NODE": 165.8525, "ARG_OF_PERICENTER": 84.7148, "MEAN_ANOMALY": 275.423, "EPHEMERIS_TYPE": 0, "CLASSIFICATION_TYPE": "U", "NORAD_CAT_ID": 44873, "ELEMENT_SET_NO": 999, "REV_AT_EPOCH": 32352, "BSTAR": 0.00014065, "MEAN_MOTION_DOT": 1.068e-05, "MEAN_MOTION_DDOT": 0}, "tle": {"line1": "1 44873U 19092A   25344.49451484  .00001068  00000+0  14065-3 0  9997", "line2": "2 44873  97.8810 165.8525 0001447  84.7148 275.4230 14.82159472323522"}}, "geometry": {"type": "Point", "coordinates": [156.8276727485469, 49.19714066802337]}}, {"type": "Feature", "properties": {"norad_id": 46277, "name": "NEMO-HD", "group": "resource", "lat": 35.661425062148815, "lon": -130.95017529292193, "alt_km": 442.91915230791255, "timestamp": "2025-12-10T16:57:11.292477+00:00", "meta": {"OBJECT_NAME": "NEMO-HD", "OBJECT_ID": "2020-061F", "EPOCH": "2025-12-10T10:05:37.449312", "MEAN_MOTION": 15.40248296, "ECCENTRICITY": 0.0002031, "INCLINATION": 97.221, "RA_OF_ASC_NODE": 43.5477, "ARG_OF_PERICENTER": 59.0087, "MEAN_ANOMALY": 301.1359, "EPHEMERIS_TYPE": 0, "CLASSIFICATION_TYPE": "U", "NORAD_CAT_ID": 46277, "ELEMENT_SET_NO": 999, "REV_AT_EPOCH": 29288, "BSTAR": 0.00038069, "MEAN_MOTION_DOT": 0.00015244, "MEAN_MOTION_DDOT": 0}, "tle": {"line1": "1 46277U 20061F   25344.42057233  .00015244  00000+0  38069-3 0  9993", "line2": "2 46277  97.2210  43.5477 0002031  59.0087 301.1359 15.40248296292886"}}, "geometry": {"type": "Point", "coordinates": [-130.95017529292193, 35.661425062148815]}}, {"type": "Feature", "properties": {"norad_id": 46984, "name": "SENTINEL-6A", "group": "resource", "lat": 65.21721312306887, "lon": -119.08403895289516, "alt_km": 1336.4400616978137, "timestamp": "2025-12-10T16:57:11.292487+00:00", "meta": {"OBJECT_NAME": "SENTINEL-6A", "OBJECT_ID": "2020-086A", "EPOCH": "2025-12-09T23:39:14.637312", "MEAN_MOTION": 12.8093052, "ECCENTRICITY": 0.00077304, "INCLINATION": 66.0391, "RA_OF_ASC_NODE": 168.0287, "ARG_OF_PERICENTER": 269.1798, "MEAN_ANOMALY": 90.8331, "EPHEMERIS_TYPE": 0, "CLASSIFICATION_TYPE": "U", "NORAD_CAT_ID": 46984, "ELEMENT_SET_NO": 999, "REV_AT_EPOCH": 23609, "BSTAR": 6.617319e-05, "MEAN_MOTION_DOT": -4.6e-07, "MEAN_MOTION_DDOT": 0}, "tle": {"line1": "1 46984U 20086A   25343.98558608 -.00000046  00000+0  66173-4 0  9990", "line2": "2 46984  66.0391 168.0287 0007730 269.1798  90.8331 12.80930520236093"}}, "geometry": {"type": "Point", "coordinates": [-119.08403895289516, 65.21721312306887]}}, {"type": "Feature", "properties": {"norad_id": 48079, "name": "GAOFEN-12 02", "group": "resource", "lat": -38.54018781363096, "lon": -14.85730475374378, "alt_km": 635.6429219040183, "timestamp": "2025-12-10T16:57:11.292497+00:00", "meta": {"OBJECT_NAME": "GAOFEN-12 02", "OBJECT_ID": "2021-026A", "EPOCH": "2025-12-10T12:15:47.998944", "MEAN_MOTION": 14.80670966, "ECCENTRICITY": 0.000349, "INCLINATION": 97.9851, "RA_OF_ASC_NODE": 338.5282, "ARG_OF_PERICENTER": 105.5278, "MEAN_ANOMALY": 254.6319, "EPHEMERIS_TYPE": 0, "CLASSIFICATION_TYPE": "U", "NORAD_CAT_ID": 48079, "ELEMENT_SET_NO": 999, "REV_AT_EPOCH": 25384, "BSTAR": 0.00012143, "MEAN_MOTION_DOT": 8.8e-06, "MEAN_MOTION_DDOT": 0}, "tle": {"line1": "1 48079U 21026A   25344.51097221  .00000880  00000+0  12143-3 0  9993", "line2": "2 48079  97.9851 338.5282 0003490 105.5278 254.6319 14.80670966253843"}}, "geometry": {"type": "Point", "coordinates": [-14.85730475374378, -38.54018781363096]}}, {"type": "Feature", "properties": {"norad_id": 48268, "name": "PLEIADES NEO 3", "group": "resource", "lat": 20.50833602377616, "lon": 54.201318515794846, "alt_km": 623.7356736055917, "timestamp": "2025-12-10T16:57:11.292511+00:00", "meta": {"OBJECT_NAME": "PLEIADES NEO 3", "OBJECT_ID": "2021-034A", "EPOCH": "2025-12-08T17:51:26.688096", "MEAN_MOTION": 14.81674889, "ECCENTRICITY": 0.00013213, "INCLINATION": 97.8951, "RA_OF_ASC_NODE": 55.2426, "ARG_OF_PERICENTER": 96.866, "MEAN_ANOMALY": 263.2703, "EPHEMERIS_TYPE": 0, "CLASSIFICATION_TYPE": "U", "NORAD_CAT_ID": 48268, "ELEMENT_SET_NO": 999, "REV_AT_EPOCH": 24945, "BSTAR": 2.6372942e-05, "MEAN_MOTION_DOT": 1.55e-06, "MEAN_MOTION_DDOT": 0}, "tle": {"line1": "1 48268U 21034A   25342.74405889  .00000155  00000+0  26373-4 0  9994", "line2": "2 48268  97.8951  55.2426 0001321  96.8660 263.2703 14.81674889249458"}}, "geometry": {"type": "Point", "coordinates": [54.201318515794846, 20.50833602377616]}}, {"type": "Feature", "properties": {"norad_id": 49070, "name": "PLEIADES NEO 4", "group": "resource", "lat": -20.853964642326268, "lon": -125.8577278865327, "alt_km": 629.7238409386264, "timestamp": "2025-12-10T16:57:11.292521+00:00", "meta": {"OBJECT_NAME": "PLEIADES NEO 4", "OBJECT_ID": "2021-073E", "EPOCH": "2025-12-09T14:07:00.443712", "MEAN_MOTION": 14.81679595, "ECCENTRICITY": 0.0001363, "INCLINATION": 97.8947, "RA_OF_ASC_NODE": 56.0703, "ARG_OF_PERICENTER": 89.0853, "MEAN_ANOMALY": 271.0516, "EPHEMERIS_TYPE": 0, "CLASSIFICATION_TYPE": "U", "NORAD_CAT_ID": 49070, "ELEMENT_SET_NO": 999, "REV_AT_EPOCH": 23329, "BSTAR": 7.8728e-05, "MEAN_MOTION_DOT": 5.68e-06, "MEAN_MOTION_DDOT": 0}, "tle": {"line1": "1 49070U 21073E   25343.58819958  .00000568  00000+0  78728-4 0  9997", "line2": "2 49070  97.8947  56.0703 0001363  89.0853 271.0516 14.81679595233299"}}, "geometry": {"type": "Point", "coordinates": [-125.8577278865327, -20.853964642326268]}}, {"type": "Feature", "properties": {"norad_id": 49260, "name": "LANDSAT 9", "group": "resource", "lat": 36.61060974708125, "lon": 46.68959760266079, "alt_km": 699.452580298409, "timestamp": "2025-12-10T16:57:11.292531+00:00", "meta": {"OBJECT_NAME": "LANDSAT 9", "OBJECT_ID": "2021-088A", "EPOCH": "2025-12-10T11:50:22.208640", "MEAN_MOTION": 14.57126771, "ECCENTRICITY": 0.0001107, "INCLINATION": 98.2098, "RA_OF_ASC_NODE": 52.6371, "ARG_OF_PERICENTER": 94.7059, "MEAN_ANOMALY": 265.4266, "EPHEMERIS_TYPE": 0, "CLASSIFICATION_TYPE": "U", "NORAD_CAT_ID": 49260, "ELEMENT_SET_NO": 999, "REV_AT_EPOCH": 22352, "BSTAR": 0.00017196, "MEAN_MOTION_DOT": 7.3e-06, "MEAN_MOTION_DDOT": 0}, "tle": {"line1": "1 49260U 21088A   25344.49331260  .00000730  00000+0  17196-3 0  9992", "line2": "2 49260  98.2098  52.6371 0001107  94.7059 265.4266 14.57126771223522"}}, "geometry": {"type": "Point", "coordinates": [46.68959760266079, 36.61060974708125]}}]}